Total gap duration: 4 days, 5:29:32.368688
STARLINK-2643
1 48367U 21038Q   24101.40513439  .00001326  00000+0  10788-3 0  9997
2 48367  53.0554 246.3339 0001549  82.5229 277.5936 15.06403541162501
Total gap duration: 4 days, 5:00:49.809816
STARLINK-3175
1 51140U 22005AN  24100.55720488  .00002310  00000+0  16317-3 0  9992
2 51140  53.2174 197.6605 0001352  95.8093 264.3053 15.08842532123191
Total gap duration: 4 days, 4:53:52.616545
STARLINK-4468
1 53969U 22125F   24101.52913990  .00001676  00000+0  12341-3 0  9993
2 53969  53.2162 118.2778 0001566  85.6003 274.5168 15.08834432 83997
Total gap duration: 4 days, 5:04:44.831878
STARLINK-3155
1 49739U 21115R   24100.89296931  .00001967  00000+0  14161-3 0  9994
2 49739  53.2181  56.1375 0001439  90.4725 269.6432 15.08843318129897
Total gap duration: 4 days, 5:00:40.371043
STARLINK-4637
1 53742U 22107AU  24100.45458379  .00001596  00000+0  11838-3 0  9999
2 53742  53.2172 163.0405 0001484  94.4613 265.6549 15.08835751 89036
Total gap duration: 4 days, 5:00:05.100742
STARLINK-2546
1 48296U 21036W   24101.38210378  .00001258  00000+0  10333-3 0  9999
2 48296  53.0547 336.4404 0001125 107.7673 252.3438 15.06401383163647
Total gap duration: 4 days, 4:45:26.253127
STARLINK-31339
1 58981U 24031S   24101.56908891  .00047336  00000+0  17002-2 0  9999
2 58981  53.1635 298.9898 0000405  72.3742 287.7302 15.28222895  9656
Total gap duration: 4 days, 5:09:46.276027
STARLINK-2484
1 48141U 21027BB  24101.19688038  .00000944  00000+0  82258-4 0  9996
2 48141  53.0547  67.2702 0001472  94.9892 265.1265 15.06395786166744
Total gap duration: 4 days, 4:57:25.345588
STARLINK-5173
1 54059U 22136J   24101.12435736 -.00005313  00000+0 -31599-3 0  9999
2 54059  53.2152 240.1480 0002032  89.2266 270.8958 15.08833222 81868
Total gap duration: 4 days, 4:59:02.455862
STARLINK-4170
1 53140U 22083J   24101.16207263  .00004134  00000+0  27763-3 0  9992
2 53140  53.2175  69.9313 0001375  91.3872 268.7278 15.08848173 96397
Total gap duration: 4 days, 5:04:53.998390
